[{"OBJECT_NAME":"STARLINK-32898","OBJECT_ID":"2025-031T","EPOCH":"2026-03-09T05:44:22.777728","MEAN_MOTION":15.27602836,"ECCENTRICITY":8.797e-5,"INCLINATION":42.9981,"RA_OF_ASC_NODE":146.1123,"ARG_OF_PERICENTER":235.4187,"MEAN_ANOMALY":124.6582,"EPHEMERIS_TYPE":0,"CLASSIFICATION_TYPE":"U","NORAD_CAT_ID":62998,"ELEMENT_SET_NO":999,"REV_AT_EPOCH":6102,"BSTAR":0.0012203172,"MEAN_MOTION_DOT":0.00033494,"MEAN_MOTION_DDOT":0},{"OBJECT_NAME":"OBJECT BE","OBJECT_ID":"2025-313BE","EPOCH":"2026-03-09T16:43:59.380320","MEAN_MOTION":15.29801687,"ECCENTRICITY":0.00072083,"INCLINATION":97.3989,"RA_OF_ASC_NODE":145.3568,"ARG_OF_PERICENTER":335.3714,"MEAN_ANOMALY":24.7181,"EPHEMERIS_TYPE":0,"CLASSIFICATION_TYPE":"U","NORAD_CAT_ID":67482,"ELEMENT_SET_NO":999,"REV_AT_EPOCH":797,"BSTAR":0.0026504328,"MEAN_MOTION_DOT":0.00077178,"MEAN_MOTION_DDOT":0}]
