STARLINK-32898          
1 62998U 25031T   26068.23915252  .00033494  00000+0  12203-2 0  9998
2 62998  42.9981 146.1123 0000879 235.4187 124.6582 15.27602836 61028
2025-313BE              
1 67482U 25313BE  26068.69721505  .00077178  00000+0  26504-2 0  9996
2 67482  97.3989 145.3568 0007208 335.3714  24.7181 15.29801687  7972
